GSAT0222 (GALILEO 26)   
1 43565U 18060B   23297.00424360 -.00000090  00000+0  00000+0 0  9998
2 43565  57.2930   7.8633 0004550 230.9512 129.0563  1.70475730 32728
GSAT0219 (GALILEO 23)   
1 43566U 18060C   23297.22650586 -.00000090  00000+0  00000+0 0  9994
2 43566  57.2923   7.8594 0003440 262.7869  97.2220  1.70476024 32703
GSAT0220 (GALILEO 24)   
1 43567U 18060D   23296.27378752 -.00000087  00000+0  00000+0 0  9997
2 43567  57.2918   7.8856 0003730 258.6812 101.3252  1.70475673 32670
BEIDOU-3 M13            
1 43622U 18072A   23296.94523365  .00000062  00000+0  00000+0 0  9990
2 43622  55.8102  94.8058 0004070 286.3476  73.6250  1.86231255 34644
BEIDOU-3 M14            
1 43623U 18072B   23297.34763889  .00000060  00000+0  00000+0 0  9991
2 43623  55.8125  94.7851 0002034 342.7674  17.2421  1.86231262 34647
GPS BIII-1              
1 43873U 18109A   23297.52570175  .00000090  00000+0  00000+0 0  9996
2 43873  55.2106 130.3816 0026792 189.8051 356.8854  2.00570283 35684
METEOR-M2 2             
1 44387U 19038A   23297.54630335  .00000080  00000+0  54492-4 0  9994
2 44387  98.7938 261.2887 0000482 344.2618  15.8546 14.23818298223718
GPS BIII-2              
1 44506U 19056A   23296.35326491 -.00000087  00000+0  00000+0 0  9999
2 44506  55.8267   9.5009 0038271 187.6363 131.1697  2.00566172 30653
BEIDOU-3 M23            
1 44542U 19061A   23297.18929825 -.00000021  00000+0  00000+0 0  9995
2 44542  54.4764 215.3743 0008606 353.2890   6.7170  1.86231437 27786
BEIDOU-3 M24            
1 44543U 19061B   23296.57357892 -.00000017  00000+0  00000+0 0  9992
2 44543  54.4749 215.3644 0005630 342.5664 236.5775  1.86231676 27772
BEIDOU-3 M21            
1 44793U 19078A   23297.57165472 -.00000059  00000+0  00000+0 0  9995
2 44793  54.7262 333.5684 0004997   6.0568 354.0086  1.86232014 26642
BEIDOU-3 M22            
1 44794U 19078B   23296.62819894 -.00000056  00000+0  00000+0 0  9992
2 44794  54.7005 333.5820 0003143 350.5467   9.5063  1.86232481 26631
ELEKTRO-L 3             
1 44903U 19095A   23297.63183676 -.00000103  00000+0  00000+0 0  9990
2 44903   0.0086 196.2138 0001120   7.4421 132.5797  1.00271769 14011
GPS BIII-3              
1 45854U 20041A   23297.48304647 -.00000014  00000+0  00000+0 0  9996
2 45854  55.9259  66.7462 0038187 187.9696 169.4978  2.00561915 24646
COSMOS 2547             
1 46805U 20075A   23297.26835379 -.00000014  00000+0  00000+0 0  9997
2 46805  64.6110 224.8264 0007273 242.8444 117.0884  2.13102717 23309
GPS BIII-4              
1 46826U 20078A   23297.26184240 -.00000019  00000+0  00000+0 0  9992
2 46826  54.2879 250.0368 0036907 194.8161 338.7168  2.00562588 22110
GSAT0223 (GALILEO 27)   
1 49809U 21116A   23297.30722809 -.00000090  00000+0  00000+0 0  9993
2 49809  57.2834   7.7533 0003655 202.9935 161.5686  1.70475886 11703
GSAT0224 (GALILEO 28)   
1 49810U 21116B   23296.52544486 -.00000088  00000+0  00000+0 0  9998
2 49810  57.2840   7.7729 0002961 199.3735 157.8764  1.70475916 11704
GOES 18                 
1 51850U 22021A   23297.47148584  .00000091  00000+0  00000+0 0  9998
2 51850   0.0243  90.1578 0000401  83.5590 251.6473  1.00271204  6118
